start=new Date('2022-10-19T00:00:00.000Z').valueOf();
sats=[{"BSTAR":"0.00001921800000","GP_ID":"215530362","TIME_SYSTEM":"UTC","TLE_LINE1":"1 50156U 21125A   22291.65834283  .00000018  00000-0  19218-4 0  9997","MEAN_ELEMENT_THEORY":"SGP4","REV_AT_EPOCH":"4973","SITE":"AFWTR","SEMIMAJOR_AXIS":"6917.917","OBJECT_NAME":"STARLINK-3317","EPHEMERIS_TYPE":"0","EPOCH":"2022-10-18T15:48:00.820512","NORAD_CAT_ID":"50156","INCLINATION":"53.2186","OBJECT_TYPE":"PAYLOAD","PERIOD":"95.438","CENTER_NAME":"EARTH","MEAN_MOTION_DOT":"0.00000018","REF_FRAME":"TEME","RCS_SIZE":"LARGE","APOAPSIS":"540.968","MEAN_MOTION_DDOT":"0.0000000000000","RA_OF_ASC_NODE":"46.8709","FILE":"3621750","MEAN_MOTION":"15.08828157","ELEMENT_SET_NO":"999","OBJECT_ID":"2021-125A","CLASSIFICATION_TYPE":"U","ARG_OF_PERICENTER":"65.6641","MEAN_ANOMALY":"294.4530","TLE_LINE2":"2 50156  53.2186  46.8709 0001715  65.6641 294.4530 15.08828157 49735","PERIAPSIS":"538.595","COUNTRY_CODE":"US","DECAY_DATE":null,"LAUNCH_DATE":"2021-12-18","ECCENTRICITY":"0.00017150"},{"CLASSIFICATION_TYPE":"U","MEAN_MOTION":"15.08830852","FILE":"3621750","ELEMENT_SET_NO":"999","OBJECT_ID":"2021-125B","ARG_OF_PERICENTER":"46.0625","REF_FRAME":"TEME","RCS_SIZE":"LARGE","APOAPSIS":"541.206","MEAN_MOTION_DDOT":"0.0000000000000","RA_OF_ASC_NODE":"57.0456","DECAY_DATE":null,"LAUNCH_DATE":"2021-12-18","ECCENTRICITY":"0.00020710","MEAN_ANOMALY":"314.0538","PERIAPSIS":"538.341","TLE_LINE2":"2 50157  53.2179  57.0456 0002071  46.0625 314.0538 15.08830852 49598","COUNTRY_CODE":"US","SITE":"AFWTR","SEMIMAJOR_AXIS":"6917.908","BSTAR":"0.00016985000000","TIME_SYSTEM":"UTC","GP_ID":"215530122","REV_AT_EPOCH":"4959","MEAN_ELEMENT_THEORY":"SGP4","TLE_LINE1":"1 50157U 21125B   22291.61598564  .00002415  00000-0  16985-3 0  9993","OBJECT_TYPE":"PAYLOAD","PERIOD":"95.438","MEAN_MOTION_DOT":"0.00002415","CENTER_NAME":"EARTH","OBJECT_NAME":"STARLINK-3313","EPOCH":"2022-10-18T14:47:01.159296","EPHEMERIS_TYPE":"0","INCLINATION":"53.2179","NORAD_CAT_ID":"50157"},{"ARG_OF_PERICENTER":"36.3400","FILE":"3621576","ELEMENT_SET_NO":"999","MEAN_MOTION":"15.08828124","OBJECT_ID":"2021-125C","CLASSIFICATION_TYPE":"U","RA_OF_ASC_NODE":"57.7049","MEAN_MOTION_DDOT":"0.0000000000000","RCS_SIZE":"LARGE","APOAPSIS":"541.199","REF_FRAME":"TEME","ECCENTRICITY":"0.00020490","LAUNCH_DATE":"2021-12-18","DECAY_DATE":null,"COUNTRY_CODE":"US","TLE_LINE2":"2 50158  53.2180  57.7049 0002049  36.3400 323.7731 15.08828124 46446","PERIAPSIS":"538.364","MEAN_ANOMALY":"323.7731","SEMIMAJOR_AXIS":"6917.917","SITE":"AFWTR","TLE_LINE1":"1 50158U 21125C   22291.47246513 -.00000090  00000-0  12455-4 0  9999","MEAN_ELEMENT_THEORY":"SGP4","REV_AT_EPOCH":"4644","GP_ID":"215502320","TIME_SYSTEM":"UTC","BSTAR":"0.00001245500000","CENTER_NAME":"EARTH","MEAN_MOTION_DOT":"-0.00000090","PERIOD":"95.438","OBJECT_TYPE":"PAYLOAD","NORAD_CAT_ID":"50158","INCLINATION":"53.2180","EPHEMERIS_TYPE":"0","EPOCH":"2022-10-18T11:20:20.987232","OBJECT_NAME":"STARLINK-3309"},{"PERIAPSIS":"538.282","TLE_LINE2":"2 50159  53.2161  56.5182 0002122  36.7349 323.3788 15.08838340 49564","COUNTRY_CODE":"US","MEAN_ANOMALY":"323.3788","ECCENTRICITY":"0.00021220","DECAY_DATE":null,"LAUNCH_DATE":"2021-12-18","MEAN_MOTION_DDOT":"0.0000000000000","RA_OF_ASC_NODE":"56.5182","REF_FRAME":"TEME","RCS_SIZE":"LARGE","APOAPSIS":"541.218","ARG_OF_PERICENTER":"36.7349","CLASSIFICATION_TYPE":"U","MEAN_MOTION":"15.08838340","FILE":"3621750","ELEMENT_SET_NO":"999","OBJECT_ID":"2021-125D","INCLINATION":"53.2161","NORAD_CAT_ID":"50159","OBJECT_NAME":"STARLINK-3297","EPOCH":"2022-10-18T17:36:35.026272","EPHEMERIS_TYPE":"0","CENTER_NAME":"EARTH","MEAN_MOTION_DOT":"0.00001810","OBJECT_TYPE":"PAYLOAD","PERIOD":"95.438","TIME_SYSTEM":"UTC","GP_ID":"215529620","REV_AT_EPOCH":"4956","MEAN_ELEMENT_THEORY":"SGP4","TLE_LINE1":"1 50159U 21125D   22291.73373873  .00001810  00000-0  13181-3 0  9995","BSTAR":"0.00013181000000","SEMIMAJOR_AXIS":"6917.885","SITE":"AFWTR"},{"INCLINATION":"53.2168","NORAD_CAT_ID":"50160","OBJECT_NAME":"STARLINK-3288","EPOCH":"2022-10-18T14:36:24.730848","EPHEMERIS_TYPE":"0","MEAN_MOTION_DOT":"-0.00000283","CENTER_NAME":"EARTH","PERIOD":"95.438","OBJECT_TYPE":"PAYLOAD","TIME_SYSTEM":"UTC","GP_ID":"215529863","REV_AT_EPOCH":"4955","MEAN_ELEMENT_THEORY":"SGP4","TLE_LINE1":"1 50160U 21125E   22291.60861957 -.00000283  00000-0  31215-6 0  9993","BSTAR":"0.00000031215000","SEMIMAJOR_AXIS":"6917.890","SITE":"AFWTR","PERIAPSIS":"538.320","TLE_LINE2":"2 50160  53.2168  57.0884 0002075  40.4075 319.7071 15.08836741 49559","COUNTRY_CODE":"US","MEAN_ANOMALY":"319.7071","ECCENTRICITY":"0.00020750","DECAY_DATE":null,"LAUNCH_DATE":"2021-12-18","MEAN_MOTION_DDOT":"0.0000000000000","RA_OF_ASC_NODE":"57.0884","REF_FRAME":"TEME","APOAPSIS":"541.191","RCS_SIZE":"LARGE","ARG_OF_PERICENTER":"40.4075","CLASSIFICATION_TYPE":"U","MEAN_MOTION":"15.08836741","FILE":"3621750","ELEMENT_SET_NO":"999","OBJECT_ID":"2021-125E"},{"ECCENTRICITY":"0.00024790","LAUNCH_DATE":"2021-12-18","DECAY_DATE":null,"COUNTRY_CODE":"US","TLE_LINE2":"2 50161  53.2184  57.0627 0002479  36.3413 323.7747 15.08829602 49543","PERIAPSIS":"538.062","MEAN_ANOMALY":"323.7747","ARG_OF_PERICENTER":"36.3413","FILE":"3621750","ELEMENT_SET_NO":"999","MEAN_MOTION":"15.08829602","OBJECT_ID":"2021-125F","CLASSIFICATION_TYPE":"U","RA_OF_ASC_NODE":"57.0627","MEAN_MOTION_DDOT":"0.0000000000000","RCS_SIZE":"LARGE","APOAPSIS":"541.492","REF_FRAME":"TEME","CENTER_NAME":"EARTH","MEAN_MOTION_DOT":"0.00000302","PERIOD":"95.438","OBJECT_TYPE":"PAYLOAD","NORAD_CAT_ID":"50161","INCLINATION":"53.2184","EPHEMERIS_TYPE":"0","EPOCH":"2022-10-18T14:41:43.388736","OBJECT_NAME":"STARLINK-3304","SEMIMAJOR_AXIS":"6917.912","SITE":"AFWTR","TLE_LINE1":"1 50161U 21125F   22291.61230774  .00000302  00000-0  37118-4 0  9999","MEAN_ELEMENT_THEORY":"SGP4","REV_AT_EPOCH":"4954","GP_ID":"215530622","TIME_SYSTEM":"UTC","BSTAR":"0.00003711800000"},{"ARG_OF_PERICENTER":"51.0288","ELEMENT_SET_NO":"999","FILE":"3621311","MEAN_MOTION":"15.60595685","OBJECT_ID":"2021-125G","CLASSIFICATION_TYPE":"U","RA_OF_ASC_NODE":"288.8341","MEAN_MOTION_DDOT":"0.0000000000000","APOAPSIS":"386.685","RCS_SIZE":"LARGE","REF_FRAME":"TEME","ECCENTRICITY":"0.00011050","LAUNCH_DATE":"2021-12-18","DECAY_DATE":null,"COUNTRY_CODE":"US","TLE_LINE2":"2 50162  53.1977 288.8341 0001105  51.0288 309.0824 15.60595685 50846","PERIAPSIS":"385.190","MEAN_ANOMALY":"309.0824","SEMIMAJOR_AXIS":"6764.072","SITE":"AFWTR","TLE_LINE1":"1 50162U 21125G   22291.49376587 -.00458136  00000-0 -57492-2 0  9998","REV_AT_EPOCH":"5084","MEAN_ELEMENT_THEORY":"SGP4","GP_ID":"215472956","TIME_SYSTEM":"UTC","BSTAR":"-0.00574920000000","CENTER_NAME":"EARTH","MEAN_MOTION_DOT":"-0.00458136","PERIOD":"92.272","OBJECT_TYPE":"PAYLOAD","NORAD_CAT_ID":"50162","INCLINATION":"53.1977","EPHEMERIS_TYPE":"0","EPOCH":"2022-10-18T11:51:01.371168","OBJECT_NAME":"STARLINK-3303"},{"MEAN_ANOMALY":"321.6006","TLE_LINE2":"2 50163  53.2191  37.1331 0002097  38.5135 321.6006 15.08831421 49823","PERIAPSIS":"538.321","COUNTRY_CODE":"US","DECAY_DATE":null,"LAUNCH_DATE":"2021-12-18","ECCENTRICITY":"0.00020970","REF_FRAME":"TEME","RCS_SIZE":"LARGE","APOAPSIS":"541.222","MEAN_MOTION_DDOT":"0.0000000000000","RA_OF_ASC_NODE":"37.1331","FILE":"3621750","MEAN_MOTION":"15.08831421","ELEMENT_SET_NO":"999","OBJECT_ID":"2021-125H","CLASSIFICATION_TYPE":"U","ARG_OF_PERICENTER":"38.5135","OBJECT_NAME":"STARLINK-3306","EPHEMERIS_TYPE":"0","EPOCH":"2022-10-18T14:19:14.710656","NORAD_CAT_ID":"50163","INCLINATION":"53.2191","PERIOD":"95.438","OBJECT_TYPE":"PAYLOAD","MEAN_MOTION_DOT":"0.00000623","CENTER_NAME":"EARTH","BSTAR":"0.00005724200000","GP_ID":"215529121","TIME_SYSTEM":"UTC","TLE_LINE1":"1 50163U 21125H   22291.59669804  .00000623  00000-0  57242-4 0  9994","REV_AT_EPOCH":"4982","MEAN_ELEMENT_THEORY":"SGP4","SITE":"AFWTR","SEMIMAJOR_AXIS":"6917.907"},{"ECCENTRICITY":"0.00019430","LAUNCH_DATE":"2021-12-18","DECAY_DATE":null,"COUNTRY_CODE":"US","PERIAPSIS":"538.426","TLE_LINE2":"2 50165  53.2185  56.5474 0001943  43.2347 316.8798 15.08831934 49618","MEAN_ANOMALY":"316.8798","ARG_OF_PERICENTER":"43.2347","CLASSIFICATION_TYPE":"U","FILE":"3621750","MEAN_MOTION":"15.08831934","ELEMENT_SET_NO":"999","OBJECT_ID":"2021-125K","RA_OF_ASC_NODE":"56.5474","MEAN_MOTION_DDOT":"0.0000000000000","APOAPSIS":"541.114","RCS_SIZE":"LARGE","REF_FRAME":"TEME","MEAN_MOTION_DOT":"0.00000429","CENTER_NAME":"EARTH","PERIOD":"95.438","OBJECT_TYPE":"PAYLOAD","INCLINATION":"53.2185","NORAD_CAT_ID":"50165","EPOCH":"2022-10-18T17:31:17.929632","EPHEMERIS_TYPE":"0","OBJECT_NAME":"STARLINK-3298","SEMIMAJOR_AXIS":"6917.905","SITE":"AFWTR","REV_AT_EPOCH":"4961","MEAN_ELEMENT_THEORY":"SGP4","TLE_LINE1":"1 50165U 21125K   22291.73006863  .00000429  00000-0  45083-4 0  9996","TIME_SYSTEM":"UTC","GP_ID":"215530363","BSTAR":"0.00004508300000"},{"OBJECT_TYPE":"PAYLOAD","PERIOD":"95.439","CENTER_NAME":"EARTH","MEAN_MOTION_DOT":"0.00000433","EPHEMERIS_TYPE":"0","EPOCH":"2022-10-18T14:53:38.761728","OBJECT_NAME":"STARLINK-3305","NORAD_CAT_ID":"50166","INCLINATION":"53.2191","SITE":"AFWTR","SEMIMAJOR_AXIS":"6917.931","BSTAR":"0.00004536000000","TLE_LINE1":"1 50166U 21125L   22291.62058752  .00000433  00000-0  45360-4 0  9992","REV_AT_EPOCH":"4968","MEAN_ELEMENT_THEORY":"SGP4","GP_ID":"215530123","TIME_SYSTEM":"UTC","LAUNCH_DATE":"2021-12-18","DECAY_DATE":null,"ECCENTRICITY":"0.00022880","MEAN_ANOMALY":"330.0539","COUNTRY_CODE":"US","TLE_LINE2":"2 50166  53.2191  47.0261 0002288  30.0584 330.0539 15.08823528 49683","PERIAPSIS":"538.213","FILE":"3621750","OBJECT_ID":"2021-125L","ELEMENT_SET_NO":"999","MEAN_MOTION":"15.08823528","CLASSIFICATION_TYPE":"U","ARG_OF_PERICENTER":"30.0584","RCS_SIZE":"LARGE","APOAPSIS":"541.379","REF_FRAME":"TEME","RA_OF_ASC_NODE":"47.0261","MEAN_MOTION_DDOT":"0.0000000000000"}];
